{
  "type": "FeatureCollection",
  "features": [
    {
      "type": "Feature",
      "properties": {
        "norad_id": 39773,
        "name": "EUTELSAT 3B",
        "group": "eutelsat",
        "lat": 0.08572891034217471,
        "lon": 84.43126264573947,
        "alt_km": 35801.14655480031,
        "timestamp": "2025-12-17T23:38:06.534210+00:00",
        "meta_object_name": "EUTELSAT 3B",
        "meta_object_id": "2014-030A",
        "meta_epoch": "2025-12-17T13:20:29.956128",
        "meta_mean_motion": 1.00271989,
        "meta_eccentricity": 0.00042439,
        "meta_inclination": 0.0601,
        "meta_ra_of_asc_node": 359.766,
        "meta_arg_of_pericenter": 232.0618,
        "meta_mean_anomaly": 57.8161,
        "meta_ephemeris_type": 0,
        "meta_classification_type": "U",
        "meta_norad_cat_id": 39773,
        "meta_element_set_no": 999,
        "meta_rev_at_epoch": 4224,
        "meta_bstar": 0,
        "meta_mean_motion_dot": 4.5e-07,
        "meta_mean_motion_ddot": 0,
        "tle_line1": "1 39773U 14030A   25351.55590227  .00000045  00000+0  00000+0 0  9995",
        "tle_line2": "2 39773   0.0601 359.7660 0004243 232.0618  57.8161  1.00271989 42246"
      },
      "geometry": {
        "type": "Point",
        "coordinates": [
          84.43126264573947,
          0.08572891034217471
        ]
      }
    },
    {
      "type": "Feature",
      "properties": {
        "norad_id": 40425,
        "name": "EUTELSAT 115 WEST B",
        "group": "eutelsat",
        "lat": 0.003739959007498138,
        "lon": -33.52969331093299,
        "alt_km": 35785.41127477097,
        "timestamp": "2025-12-17T23:38:06.534221+00:00",
        "meta_object_name": "EUTELSAT 115 WEST B",
        "meta_object_id": "2015-010B",
        "meta_epoch": "2025-12-17T12:06:39.780576",
        "meta_mean_motion": 1.00272091,
        "meta_eccentricity": 2.165e-05,
        "meta_inclination": 0.0082,
        "meta_ra_of_asc_node": 151.3795,
        "meta_arg_of_pericenter": 123.7729,
        "meta_mean_anomaly": 237.9925,
        "meta_ephemeris_type": 0,
        "meta_classification_type": "U",
        "meta_norad_cat_id": 40425,
        "meta_element_set_no": 999,
        "meta_rev_at_epoch": 3957,
        "meta_bstar": 0,
        "meta_mean_motion_dot": 0,
        "meta_mean_motion_ddot": 0,
        "tle_line1": "1 40425U 15010B   25351.50462709  .00000000  00000+0  00000+0 0  9999",
        "tle_line2": "2 40425   0.0082 151.3795 0000216 123.7729 237.9925  1.00272091 39571"
      },
      "geometry": {
        "type": "Point",
        "coordinates": [
          -33.52969331093299,
          0.003739959007498138
        ]
      }
    },
    {
      "type": "Feature",
      "properties": {
        "norad_id": 40875,
        "name": "EUTELSAT 8 WEST B",
        "group": "eutelsat",
        "lat": 0.08960418676352942,
        "lon": 73.39447927820257,
        "alt_km": 35803.74639742739,
        "timestamp": "2025-12-17T23:38:06.534233+00:00",
        "meta_object_name": "EUTELSAT 8 WEST B",
        "meta_object_id": "2015-039B",
        "meta_epoch": "2025-12-17T13:17:07.778400",
        "meta_mean_motion": 1.00271857,
        "meta_eccentricity": 0.00043117,
        "meta_inclination": 0.0638,
        "meta_ra_of_asc_node": 351.1029,
        "meta_arg_of_pericenter": 276.7024,
        "meta_mean_anomaly": 9.919,
        "meta_ephemeris_type": 0,
        "meta_classification_type": "U",
        "meta_norad_cat_id": 40875,
        "meta_element_set_no": 999,
        "meta_rev_at_epoch": 3783,
        "meta_bstar": 0,
        "meta_mean_motion_dot": -4.1e-07,
        "meta_mean_motion_ddot": 0,
        "tle_line1": "1 40875U 15039B   25351.55356225 -.00000041  00000+0  00000+0 0  9995",
        "tle_line2": "2 40875   0.0638 351.1029 0004311 276.7024   9.9190  1.00271857 37831"
      },
      "geometry": {
        "type": "Point",
        "coordinates": [
          73.39447927820257,
          0.08960418676352942
        ]
      }
    },
    {
      "type": "Feature",
      "properties": {
        "norad_id": 41310,
        "name": "EUTELSAT 9B",
        "group": "eutelsat",
        "lat": 0.041251557582161424,
        "lon": 90.36076126356555,
        "alt_km": 35804.964176598056,
        "timestamp": "2025-12-17T23:38:06.534245+00:00",
        "meta_object_name": "EUTELSAT 9B",
        "meta_object_id": "2016-005A",
        "meta_epoch": "2025-12-17T13:22:07.300416",
        "meta_mean_motion": 1.00271839,
        "meta_eccentricity": 0.00044778,
        "meta_inclination": 0.0563,
        "meta_ra_of_asc_node": 69.7701,
        "meta_arg_of_pericenter": 203.988,
        "meta_mean_anomaly": 22.1929,
        "meta_ephemeris_type": 0,
        "meta_classification_type": "U",
        "meta_norad_cat_id": 41310,
        "meta_element_set_no": 999,
        "meta_rev_at_epoch": 3629,
        "meta_bstar": 0,
        "meta_mean_motion_dot": 8.6e-07,
        "meta_mean_motion_ddot": 0,
        "tle_line1": "1 41310U 16005A   25351.55702894  .00000086  00000+0  00000+0 0  9999",
        "tle_line2": "2 41310   0.0563  69.7701 0004477 203.9880  22.1929  1.00271839 36293"
      },
      "geometry": {
        "type": "Point",
        "coordinates": [
          90.36076126356555,
          0.041251557582161424
        ]
      }
    },
    {
      "type": "Feature",
      "properties": {
        "norad_id": 41382,
        "name": "EUTELSAT 65 WEST A",
        "group": "eutelsat",
        "lat": 0.05863415181521136,
        "lon": 16.181345060752577,
        "alt_km": 35788.27020501398,
        "timestamp": "2025-12-17T23:38:06.534262+00:00",
        "meta_object_name": "EUTELSAT 65 WEST A",
        "meta_object_id": "2016-014A",
        "meta_epoch": "2025-12-17T13:00:54.332064",
        "meta_mean_motion": 1.0027016,
        "meta_eccentricity": 0.00023136,
        "meta_inclination": 0.0567,
        "meta_ra_of_asc_node": 325.7518,
        "meta_arg_of_pericenter": 310.6139,
        "meta_mean_anomaly": 300.0673,
        "meta_ephemeris_type": 0,
        "meta_classification_type": "U",
        "meta_norad_cat_id": 41382,
        "meta_element_set_no": 999,
        "meta_rev_at_epoch": 3571,
        "meta_bstar": 0,
        "meta_mean_motion_dot": -2.51e-06,
        "meta_mean_motion_ddot": 0,
        "tle_line1": "1 41382U 16014A   25351.54229551 -.00000251  00000+0  00000+0 0  9996",
        "tle_line2": "2 41382   0.0567 325.7518 0002313 310.6139 300.0673  1.00270160 35713"
      },
      "geometry": {
        "type": "Point",
        "coordinates": [
          16.181345060752577,
          0.05863415181521136
        ]
      }
    },
    {
      "type": "Feature",
      "properties": {
        "norad_id": 41589,
        "name": "EUTELSAT 117 WEST B",
        "group": "eutelsat",
        "lat": 0.0039114769981282715,
        "lon": -35.618967543841066,
        "alt_km": 35785.329339217074,
        "timestamp": "2025-12-17T23:38:06.534274+00:00",
        "meta_object_name": "EUTELSAT 117 WEST B",
        "meta_object_id": "2016-038B",
        "meta_epoch": "2025-12-17T11:09:38.705184",
        "meta_mean_motion": 1.00272667,
        "meta_eccentricity": 2.539e-05,
        "meta_inclination": 0.0126,
        "meta_ra_of_asc_node": 156.3845,
        "meta_arg_of_pericenter": 104.8947,
        "meta_mean_anomaly": 235.4811,
        "meta_ephemeris_type": 0,
        "meta_classification_type": "U",
        "meta_norad_cat_id": 41589,
        "meta_element_set_no": 999,
        "meta_rev_at_epoch": 3484,
        "meta_bstar": 0,
        "meta_mean_motion_dot": 1.3e-07,
        "meta_mean_motion_ddot": 0,
        "tle_line1": "1 41589U 16038B   25351.46503131  .00000013  00000+0  00000+0 0  9996",
        "tle_line2": "2 41589   0.0126 156.3845 0000253 104.8947 235.4811  1.00272667 34847"
      },
      "geometry": {
        "type": "Point",
        "coordinates": [
          -35.618967543841066,
          0.0039114769981282715
        ]
      }
    },
    {
      "type": "Feature",
      "properties": {
        "norad_id": 42741,
        "name": "EUTELSAT 172B",
        "group": "eutelsat",
        "lat": -0.01525645426043671,
        "lon": -106.63856993930443,
        "alt_km": 35786.76804526294,
        "timestamp": "2025-12-17T23:38:06.534287+00:00",
        "meta_object_name": "EUTELSAT 172B",
        "meta_object_id": "2017-029B",
        "meta_epoch": "2025-12-17T12:34:37.355808",
        "meta_mean_motion": 1.00272046,
        "meta_eccentricity": 1.917e-05,
        "meta_inclination": 0.0468,
        "meta_ra_of_asc_node": 148.1177,
        "meta_arg_of_pericenter": 301.9397,
        "meta_mean_anomaly": 356.989,
        "meta_ephemeris_type": 0,
        "meta_classification_type": "U",
        "meta_norad_cat_id": 42741,
        "meta_element_set_no": 999,
        "meta_rev_at_epoch": 3190,
        "meta_bstar": 0,
        "meta_mean_motion_dot": 1.9e-07,
        "meta_mean_motion_ddot": 0,
        "tle_line1": "1 42741U 17029B   25351.52404347  .00000019  00000+0  00000+0 0  9990",
        "tle_line2": "2 42741   0.0468 148.1177 0000191 301.9397 356.9890  1.00272046 31905"
      },
      "geometry": {
        "type": "Point",
        "coordinates": [
          -106.63856993930443,
          -0.01525645426043671
        ]
      }
    }
  ]
}